satname,norad_id,inclination_deg,eccentricity,mean_motion_rev_per_day,perigee_km,apogee_km,l1,l2
STARLINK-1297,45395,53.0539,0.0002037,15.46709391,424.9739153677101,427.7460674420081,1 45395U 20019AM  26030.58335647  .00123619  00000+0  24033-2 0  9995,2 45395  53.0539 313.6433 0002037 112.3349 207.6394 15.46709391  5833
STARLINK-1307,45397,53.0571,0.000153,15.45534026,428.7677784705138,430.85101006716013,1 45397U 20019AP  26030.01769271  .00028274  00000+0  58620-3 0  9990,2 45397  53.0571 315.8172 0001530 109.5429 250.5742 15.45534026324062
STARLINK-1255,45399,53.0451,0.0007135,15.44581663,427.7480838076053,437.4670162805187,1 45399U 20019AR  26030.58335647  .00130568  00000+0  27252-2 0  9996,2 45399  53.0451 285.1317 0007135 108.5345 143.3386 15.44581663  5948
STARLINK-1260,45404,53.1573,0.0001585,15.29355238,476.6518811660617,478.82519371142826,1 45404U 20019AW  26030.48499242  .00001087  00000+0  50002-4 0  9998,2 45404  53.1573 306.6595 0001585  97.3202 262.7978 15.29355238324125
STARLINK-1263,45405,53.1547,0.0001443,15.29331183,476.82111519501086,478.7997416228509,1 45405U 20019AX  26030.58335647  .00069627  00000+0  24045-2 0  9998,2 45405  53.1547 306.2199 0001443  96.7100 156.3061 15.29331183  5283
STARLINK-1265,45406,53.1564,0.000121,15.29327878,476.9907350722651,478.64987674029453,1 45406U 20019AY  26030.58335647  .00071251  00000+0  24600-2 0  9992,2 45406  53.1564 306.2902 0001210  86.7505  87.4716 15.29327878  5732
STARLINK-1278,45408,53.0505,0.000628,15.47894997,418.613915154996,427.1559987329174,1 45408U 20019BA  26030.07686903  .00142064  00000+0  26420-2 0  9995,2 45408  53.0505 316.2205 0006280  63.4234 296.7416 15.47894997323969
STARLINK-1296,45412,53.1492,0.0002036,15.28014839,480.3506679813081,483.14401288473346,1 45412U 20019BE  26030.58335647  .00851299  00000+0  28284-1 0  9998,2 45412  53.1492 306.2132 0002036 101.6157  95.5827 15.28014839  5733
STARLINK-1298,45413,53.0412,0.0007423,15.77578618,332.31854963752085,342.28829248662987,1 45413U 20019BF  26030.58335647  .00159498  00000+0  92340-3 0  9997,2 45413  53.0412 246.9703 0007423 160.6190 311.8780 15.77578618  6014
STARLINK-1309,45414,53.07,0.0001741,15.33087287,465.4160135822285,467.7993536810691,1 45414U 20019BG  26030.58335647  .01522185  00000+0  42896-1 0  9995,2 45414  53.0700 306.2769 0001741  92.3603 310.5631 15.33087287  5798
STARLINK-1316,45415,53.1544,0.0001451,15.293273,476.82723369548603,478.81683300696386,1 45415U 20019BH  26030.58335647  .00066322  00000+0  22922-2 0  9990,2 45415  53.1544 306.2905 0001451 108.3325 185.8656 15.29327300  5737
STARLINK-1318,45416,53.0377,0.000487,15.85531435,311.56928863289886,318.08823728602147,1 45416U 20019BJ  26030.58335647  .00276773  00000+0  10926-2 0  9995,2 45416  53.0377 233.8438 0004870 205.3951 120.2551 15.85531435  5889
STARLINK-1286,45417,53.0516,0.0002302,15.48005999,420.99431459621974,424.1253554190571,1 45417U 20019BK  26030.48405995  .00041985  00000+0  79409-3 0  9996,2 45417  53.0516 313.8857 0002302  55.6154 304.5070 15.48005999324302
STARLINK-1308,45419,53.0562,0.0002214,15.42124984,438.329359365629,441.3483590760934,1 45419U 20019BM  26030.58335647  .00029230  00000+0  67931-3 0  9991,2 45419  53.0562 333.8012 0002214  97.1209 157.0474 15.42124984  5792
STARLINK-1329,45531,53.0534,0.0007812,15.47948538,417.4152960720903,428.0409677541911,1 45531U 20025A   26030.07211909  .00088038  00000+0  16480-2 0  9994,2 45531  53.0534 267.2494 0007812 115.6183 244.5632 15.47948538319459
STARLINK-1338,45532,53.0527,0.0005353,15.4668285,422.7953454910494,430.0803233087581,1 45532U 20025B   26030.03674559  .00083478  00000+0  16350-2 0  9994,2 45532  53.0527 270.4426 0005353 127.9652 232.1838 15.46682850319405
STARLINK-1350,45535,53.0709,0.0001764,15.35065101,459.5207580236565,461.933509290011,1 45535U 20025E   26030.52047645  .00015353  00000+0  45492-3 0  9998,2 45535  53.0709 212.2553 0001764 135.6659 224.4484 15.35065101320292
STARLINK-1362,45538,53.0784,0.0001791,15.12235826,528.1459989504328,530.6202726630781,1 45538U 20025H   26030.58335647  .01009469  00000+0  53639-1 0  9991,2 45538  53.0784 277.3413 0001791  97.8063 292.7237 15.12235826  5835
STARLINK-1368,45540,53.0876,0.0001373,15.14557931,521.3735372457513,523.2684030043483,1 45540U 20025K   26030.58335647  .00091001  00000+0  48320-2 0  9998,2 45540  53.0876 277.4914 0001373  86.4691 351.6591 15.14557931  5838
STARLINK-1371,45542,53.053,0.0004519,15.41571101,438.39010236025024,444.5536648692614,1 45542U 20025M   26029.97961863  .00075355  00000+0  17577-2 0  9990,2 45542  53.0530 273.5459 0004519 119.3406 240.8050 15.41571101319352
STARLINK-1372,45543,53.0885,7.22e-05,15.14413079,522.2627325863978,523.2592222543371,1 45543U 20025N   26030.58335647  .01551757  00000+0  76949-1 0  9998,2 45543  53.0885 277.5649 0000722 105.0505 251.4222 15.14413079  5726
STARLINK-1373,45544,53.0548,0.0003877,15.43124193,434.25315425651297,439.53753033473004,1 45544U 20025P   26030.38832368  .00111565  00000+0  24549-2 0  9997,2 45544  53.0548 271.9401 0003877 138.7996 221.3302 15.43124193319415
STARLINK-1294,45551,53.0374,0.0005772,15.83612712,316.3675539979604,324.1001533114195,1 45551U 20025W   26030.58335647  .00242408  00000+0  10530-2 0  9991,2 45551  53.0374 169.6497 0005772 308.5140 209.7830 15.83612712  5930
STARLINK-1327,45555,53.0518,0.0003409,15.46096563,425.8376773475711,430.4782092399091,1 45555U 20025AA  26030.58335647  .00147111  00000+0  29102-2 0  9995,2 45555  53.0518 249.5213 0003409 149.5369  42.5492 15.46096563  5890
STARLINK-1356,45564,53.0535,0.0001163,15.39026921,448.1915268218181,449.77951552024206,1 45564U 20025AK  26030.04566370  .00049501  00000+0  12637-2 0  9994,2 45564  53.0535 257.1399 0001163  94.2141 265.8995 15.39026921319583
STARLINK-1357,45565,53.0569,0.0004884,15.47432952,420.9164119188981,427.5609724950473,1 45565U 20025AL  26030.58335647  .00115775  00000+0  21974-2 0  9996,2 45565  53.0569 221.2633 0004884 142.9197 232.9009 15.47432952  5946
STARLINK-1361,45567,53.0539,5.35e-05,15.39757107,446.4618358938915,447.1921070388389,1 45567U 20025AN  26030.58335647  .00099997  00000+0  24659-2 0  9998,2 45567  53.0539 255.0933 0000535  98.3575  15.0319 15.39757107  5831
STARLINK-1363,45568,53.0471,5.78e-05,15.65674612,370.90916442143316,371.68939925561426,1 45568U 20025AP  26030.58335647  .00179232  00000+0  17113-2 0  9997,2 45568  53.0471 226.6363 0000578 357.1705 212.5518 15.65674612  5985
STARLINK-1366,45569,53.0475,4e-07,15.65423948,372.0170662811752,372.02246640658905,1 45569U 20025AQ  26030.58335647  .00175813  00000+0  16963-2 0  9991,2 45569  53.0475 227.2732 0000004 139.3595  51.4391 15.65423948  5969
STARLINK-1376,45570,53.1614,0.0001589,15.29342515,476.68715660116504,478.8659659309342,1 45570U 20025AR  26030.03171092 -.00023056  00000+0 -78942-3 0  9994,2 45570  53.1614 257.1347 0001589  99.1683 260.9497 15.29342515319581
STARLINK-1320,45572,53.0498,0.0005777,15.60166031,383.26874517850774,391.0853890516519,1 45572U 20025AT  26030.41974243  .00132371  00000+0  15770-2 0  9995,2 45572  53.0498 173.4585 0005777 237.8937 122.1515 15.60166031320812
STARLINK-1321,45573,53.0514,0.000382,15.41744327,438.35615737607804,443.565948288443,1 45573U 20025AU  26030.00869817  .00038474  00000+0  90131-3 0  9995,2 45573  53.0514 242.6814 0003820 131.4022 228.7312 15.41744327319485
STARLINK-1331,45578,53.0532,0.0001627,15.31530025,470.13233398429566,472.3611234496193,1 45578U 20025AZ  26030.50003471  .01822391  00000+0  53818-1 0  9990,2 45578  53.0532 246.7335 0001627  89.7523 218.4938 15.31530025  5767
STARLINK-1333,45580,53.1613,0.0001287,15.30199094,474.33574781386415,476.0998013328399,1 45580U 20025BB  26030.02701100 -.00003751  00000+0 -11459-3 0  9993,2 45580  53.1613 257.3911 0001287  76.6004 283.5140 15.30199094319582
STARLINK-1335,45581,53.0551,0.0001864,15.06398571,545.9250518333529,548.5068234084983,1 45581U 20025BC  26030.31497314  .00001626  00000+0  12808-3 0  9991,2 45581  53.0551 248.8892 0001864  90.1711 269.9491 15.06398571319720
STARLINK-1337,45582,53.054,7.89e-05,15.3783024,451.9878606618113,453.0657394094569,1 45582U 20025BD  26030.50003471  .01597681  00000+0  38543-1 0  9994,2 45582  53.0540 245.9532 0000789 102.4436  64.8498 15.37830240  5824
STARLINK-1347,45586,53.0488,0.0004594,15.45992869,425.33533281304244,431.5892362356635,1 45586U 20025BH  26030.50003471  .00186135  00000+0  36740-2 0  9993,2 45586  53.0488 212.8144 0004594 164.2200 105.2470 15.45992869  5942
STARLINK-1364,45589,53.0531,7.89e-05,15.42286263,438.82564005603945,439.90144164138655,1 45589U 20025BL  26030.50003471  .00122887  00000+0  27764-2 0  9996,2 45589  53.0531 245.3635 0000789  95.7679 353.4036 15.42286263  5676
STARLINK-1365,45590,53.0542,0.0001109,15.41627945,440.54796824384175,442.0605203118221,1 45590U 20025BM  26030.50003471  .00110469  00000+0  25563-2 0  9996,2 45590  53.0542 274.9303 0001109 133.8222  88.7882 15.41627945  5824
STARLINK-1443,45660,53.0548,0.0001581,15.06387817,546.1539938198875,548.3438008406238,1 45660U 20035D   26030.54074075  .00001824  00000+0  14139-3 0  9999,2 45660  53.0548 237.8751 0001581  92.8460 267.2710 15.06387817312989
STARLINK-1446,45663,53.024,0.000428,15.41142903,439.81568554905516,445.65435199712556,1 45663U 20035G   26030.44176977  .00025005  00000+0  60197-3 0  9997,2 45663  53.0240 180.8192 0004280 141.8235 218.3072 15.41142903313771
STARLINK-1448,45665,53.0543,0.0003054,15.4239825,436.951579757585,441.115507525642,1 45665U 20035J   26030.50003471  .00211469  00000+0  46981-2 0  9999,2 45665  53.0543 235.5011 0003054  47.4894 305.6461 15.42398250  5822
STARLINK-1451,45668,53.0534,0.0003581,15.07955272,539.9707087704664,544.9272324426138,1 45668U 20035M   26029.86863319  .00031030  00000+0  20066-2 0  9994,2 45668  53.0534 241.0428 0003581 126.3562 233.7759 15.07955272312885
